NORAD_CAT_ID,OBJECT_NAME,OBJECT_TYPE,EPOCH,MEAN_MOTION,ECCENTRICITY,INCLINATION,RA_OF_ASC_NODE,ARG_OF_PERICENTER,MEAN_ANOMALY,BSTAR,MEAN_MOTION_DOT,MEAN_MOTION_DDOT,TLE_LINE0,TLE_LINE1,TLE_LINE2,SEMIMAJOR_AXIS,PERIOD,APOGEE,PERIGEE,DECAYED
53416.0,STARLINK-4480,PAYLOAD,2024-05-12 15:10:59,15.08749363,0.0001565,53.2154,224.1204,106.8479,253.2684,0.0045381,0.00072499,0.0,0 STARLINK-4480,1 53416U 22097AE  24133.63263662  .00072499  00000-0  45381-2 0  9990,2 53416  53.2154 224.1204 0001565 106.8479 253.2684 15.08749363 98078,6918.157,95.443,541.105,538.94,0.0
53416.0,STARLINK-4480,PAYLOAD,2024-05-13 05:29:30,15.08790379,0.0002769,53.214,221.4485,74.6028,285.527,0.001448,0.00022801,0.0,0 STARLINK-4480,1 53416U 22097AE  24134.22882047  .00022801  00000-0  14480-2 0  9998,2 53416  53.2140 221.4485 0002769  74.6028 285.5270 15.08790379 97704,6918.032,95.441,541.813,537.981,0.0
53416.0,STARLINK-4480,PAYLOAD,2024-05-13 11:51:02,15.0882032,0.0001787,53.2148,220.2523,111.5033,248.615,0.0024086,0.00038233,0.0,0 STARLINK-4480,1 53416U 22097AE  24134.49377780  .00038233  00000-0  24086-2 0  9999,2 53416  53.2148 220.2523 0001787 111.5033 248.6150 15.08820320 97749,6917.941,95.439,541.042,538.569,0.0
53416.0,STARLINK-4480,PAYLOAD,2024-05-14 05:20:15,15.08883582,0.0001738,53.2161,216.9817,100.592,259.5268,0.0015519,0.00024526,0.0,0 STARLINK-4480,1 53416U 22097AE  24135.22239942  .00024526  00000-0  15519-2 0  9999,2 53416  53.2161 216.9817 0001738 100.5920 259.5268 15.08883582 97853,6917.747,95.435,540.814,538.41,0.0
53416.0,STARLINK-4480,PAYLOAD,2024-05-14 11:41:46,15.08905732,0.0001672,53.216,215.7931,99.4973,260.6208,0.0011846,0.00018649,0.0,0 STARLINK-4480,1 53416U 22097AE  24135.48734498  .00018649  00000-0  11846-2 0  9991,2 53416  53.2160 215.7931 0001672  99.4973 260.6208 15.08905732 98352,6917.679,95.433,540.701,538.388,0.0
53416.0,STARLINK-4480,PAYLOAD,2024-05-15 11:32:30,15.08872618,0.0001341,53.2155,211.3295,127.1012,233.0103,-0.00055727,-9.154e-05,0.0,0 STARLINK-4480,1 53416U 22097AE  24136.48091262 -.00009154  00000-0 -55727-3 0  9997,2 53416  53.2155 211.3295 0001341 127.1012 233.0103 15.08872618 98047,6917.781,95.435,540.573,538.718,0.0
53416.0,STARLINK-4480,PAYLOAD,2024-05-16 11:23:17,15.08859495,0.0001269,53.2149,206.8737,83.2672,276.8465,9.4586e-06,-1.37e-06,0.0,0 STARLINK-4480,1 53416U 22097AE  24137.47451158 -.00000137  00000-0  94586-5 0  9990,2 53416  53.2149 206.8737 0001269  83.2672 276.8465 15.08859495 98193,6917.821,95.436,540.564,538.808,0.0
53416.0,STARLINK-4480,PAYLOAD,2024-05-17 11:14:04,15.08850844,0.0001515,53.216,202.4074,94.9156,265.2009,2.0319e-05,3.5e-07,0.0,0 STARLINK-4480,1 53416U 22097AE  24138.46810777  .00000035  00000-0  20319-4 0  9994,2 53416  53.2160 202.4074 0001515  94.9156 265.2009 15.08850844 98344,6917.847,95.437,540.76,538.664,0.0
53416.0,STARLINK-4480,PAYLOAD,2024-05-17 20:46:22,15.08858184,0.0001334,53.2165,200.6254,91.5039,268.6106,0.00023624,3.476e-05,0.0,0 STARLINK-4480,1 53416U 22097AE  24138.86554122  .00003476  00000-0  23624-3 0  9990,2 53416  53.2165 200.6254 0001334  91.5039 268.6106 15.08858184 98868,6917.825,95.436,540.613,538.767,0.0
53416.0,STARLINK-4480,PAYLOAD,2024-05-18 11:04:50,15.08853574,0.0001302,53.2155,197.9497,75.9808,284.1328,8.3221e-05,1.037e-05,0.0,0 STARLINK-4480,1 53416U 22097AE  24139.46170112  .00001037  00000-0  83221-4 0  9991,2 53416  53.2155 197.9497 0001302  75.9808 284.1328 15.08853574 98956,6917.839,95.437,540.605,538.803,0.0
53416.0,STARLINK-4480,PAYLOAD,2024-05-18 20:37:09,15.08857296,0.000133,53.2158,196.1653,78.1903,281.9238,0.00015527,2.185e-05,0.0,0 STARLINK-4480,1 53416U 22097AE  24139.85913552  .00002185  00000-0  15527-3 0  9995,2 53416  53.2158 196.1653 0001330  78.1903 281.9238 15.08857296 98552,6917.828,95.436,540.613,538.772,0.0
53416.0,STARLINK-4480,PAYLOAD,2024-05-19 04:34:07,15.08808254,0.0001482,53.2154,194.6786,96.0208,264.0953,-0.0004414,-7.3e-05,0.0,0 STARLINK-4480,1 53416U 22097AE  24140.19036158 -.00007300  00000-0 -44140-3 0  9991,2 53416  53.2154 194.6786 0001482  96.0208 264.0953 15.08808254 98605,6917.977,95.44,540.868,538.817,0.0
53416.0,STARLINK-4480,PAYLOAD,2024-05-19 12:31:03,15.08814985,0.0001623,53.2168,193.1931,98.2822,261.8354,-0.00028289,-4.784e-05,0.0,0 STARLINK-4480,1 53416U 22097AE  24140.52156360 -.00004784  00000-0 -28289-3 0  9995,2 53416  53.2168 193.1931 0001623  98.2822 261.8354 15.08814985 99114,6917.957,95.439,540.945,538.699,0.0
53416.0,STARLINK-4480,PAYLOAD,2024-05-20 12:21:49,15.08844004,0.0001364,53.2153,188.7326,95.3803,264.7345,0.0006654,0.00010319,0.0,0 STARLINK-4480,1 53416U 22097AE  24141.51516129  .00010319  00000-0  66540-3 0  9999,2 53416  53.2153 188.7326 0001364  95.3803 264.7345 15.08844004 98807,6917.868,95.437,540.677,538.79,0.0
53416.0,STARLINK-4480,PAYLOAD,2024-05-21 09:01:50,15.0885739,0.0001287,53.2146,184.8655,100.4902,259.6235,0.00052442,8.072e-05,0.0,0 STARLINK-4480,1 53416U 22097AE  24142.37627724  .00008072  00000-0  52442-3 0  9997,2 53416  53.2146 184.8655 0001287 100.4902 259.6235 15.08857390 99391,6917.827,95.436,540.583,538.802,0.0
53416.0,STARLINK-4480,PAYLOAD,2024-05-22 02:31:04,15.08853456,0.0001482,53.2144,181.597,79.1098,281.0061,0.00062815,9.727e-05,0.0,0 STARLINK-4480,1 53416U 22097AE  24143.10491571  .00009727  00000-0  62815-3 0  9991,2 53416  53.2144 181.5970 0001482  79.1098 281.0061 15.08853456 99045,6917.839,95.437,540.729,538.679,0.0
53416.0,STARLINK-4480,PAYLOAD,2024-05-22 08:52:37,15.08849166,0.0001287,53.2148,180.4051,99.1402,260.9735,0.00010058,1.314e-05,0.0,0 STARLINK-4480,1 53416U 22097AE  24143.36987350  .00001314  00000-0  10058-3 0  9990,2 53416  53.2148 180.4051 0001287  99.1402 260.9735 15.08849166 99543,6917.852,95.437,540.608,538.827,0.0
53416.0,STARLINK-4480,PAYLOAD,2024-05-23 05:32:38,15.08841347,0.0001306,53.2151,176.5392,90.4469,269.6673,2.2861e-05,7.6e-07,0.0,0 STARLINK-4480,1 53416U 22097AE  24144.23099586  .00000076  00000-0  22861-4 0  9992,2 53416  53.2151 176.5392 0001306  90.4469 269.6673 15.08841347 99214,6917.876,95.437,540.645,538.838,0.0
53416.0,STARLINK-4480,PAYLOAD,2024-05-23 08:43:24,15.08840628,0.0001249,53.216,175.944,96.6021,263.5113,2.1171e-05,4.9e-07,0.0,0 STARLINK-4480,1 53416U 22097AE  24144.36347736  .00000049  00000-0  21171-4 0  9992,2 53416  53.2160 175.9440 0001249  96.6021 263.5113 15.08840628 99694,6917.878,95.438,540.608,538.879,0.0
53416.0,STARLINK-4480,PAYLOAD,2024-05-24 06:58:47,15.08843752,0.0001263,53.2162,171.7808,95.1658,264.9478,6.105e-05,6.84e-06,0.0,0 STARLINK-4480,1 53416U 22097AE  24145.29083230  .00000684  00000-0  61050-4 0  9996,2 53416  53.2162 171.7808 0001263  95.1658 264.9478 15.08843752 99379,6917.869,95.437,540.608,538.86,0.0
53416.0,STARLINK-4480,PAYLOAD,2024-05-25 05:14:12,15.08831874,0.0001277,53.2161,167.6166,95.2916,264.8222,3.8971e-05,3.32e-06,0.0,0 STARLINK-4480,1 53416U 22097AE  24146.21819969  .00000332  00000-0  38971-4 0  9991,2 53416  53.2161 167.6166 0001277  95.2916 264.8222 15.08831874 99516,6917.905,95.438,540.654,538.887,0.0
53416.0,STARLINK-4480,PAYLOAD,2024-05-25 11:35:44,15.0884117,0.0001311,53.2164,166.43,98.2667,261.8474,-0.00012455,-2.27e-05,0.0,0 STARLINK-4480,1 53416U 22097AE  24146.48315839 -.00002270  00000-0 -12455-3 0  9990,2 53416  53.2164 166.4300 0001311  98.2667 261.8474 15.08841170100015,6917.877,95.437,540.649,538.835,0.0
53416.0,STARLINK-4480,PAYLOAD,2024-05-25 17:57:17,15.08842404,0.0001429,53.2164,165.2416,97.2691,262.8463,9.4736e-05,1.22e-05,0.0,0 STARLINK-4480,1 53416U 22097AE  24146.74811570  .00001220  00000-0  94736-4 0  9997,2 53416  53.2164 165.2416 0001429  97.2691 262.8463 15.08842404 99596,6917.873,95.437,540.727,538.749,0.0
53416.0,STARLINK-4480,PAYLOAD,2024-05-26 05:04:59,15.08837372,0.0001302,53.2165,163.1606,94.5773,265.5368,3.9441e-05,3.4e-06,0.0,0 STARLINK-4480,1 53416U 22097AE  24147.21180034  .00000340  00000-0  39441-4 0  9998,2 53416  53.2165 163.1606 0001302  94.5773 265.5368 15.08837372 99666,6917.888,95.438,540.654,538.853,0.0
53416.0,STARLINK-4480,PAYLOAD,2024-05-26 06:40:22,15.08837597,0.0001256,53.2162,162.8619,89.9226,270.191,3.0259e-05,1.94e-06,0.0,0 STARLINK-4480,1 53416U 22097AE  24147.27804047  .00000194  00000-0  30259-4 0  9996,2 53416  53.2162 162.8619 0001256  89.9226 270.1910 15.08837597100131,6917.888,95.438,540.622,538.884,0.0
53416.0,STARLINK-4480,PAYLOAD,2024-05-26 17:48:04,15.08833031,0.0001038,53.2169,160.7888,128.1749,231.9337,3.6883e-05,2.99e-06,0.0,0 STARLINK-4480,1 53416U 22097AE  24147.74172191  .00000299  00000-0  36883-4 0  9991,2 53416  53.2169 160.7888 0001038 128.1749 231.9337 15.08833031100202,6917.902,95.438,540.485,539.049,0.0
53416.0,STARLINK-4480,PAYLOAD,2024-05-27 04:55:46,15.08861265,0.0001669,53.2163,158.7041,114.565,245.5516,-0.00025144,-4.29e-05,0.0,0 STARLINK-4480,1 53416U 22097AE  24148.20539606 -.00004290  00000-0 -25144-3 0  9995,2 53416  53.2163 158.7041 0001669 114.5650 245.5516 15.08861265 99818,6917.815,95.436,540.835,538.526,0.0
53416.0,STARLINK-4480,PAYLOAD,2024-05-27 08:06:32,15.08837742,0.0001432,53.2161,158.1054,102.4597,257.6555,4.5015e-05,4.28e-06,0.0,0 STARLINK-4480,1 53416U 22097AE  24148.33788152  .00000428  00000-0  45015-4 0  9998,2 53416  53.2161 158.1054 0001432 102.4597 257.6555 15.08837742 99830,6917.887,95.438,540.743,538.762,0.0
53416.0,STARLINK-4480,PAYLOAD,2024-05-28 07:57:19,15.08842227,0.0001237,53.2154,153.6416,98.288,261.8252,7.5289e-05,9.11e-06,0.0,0 STARLINK-4480,1 53416U 22097AE  24149.33147858  .00000911  00000-0  75289-4 0  9994,2 53416  53.2154 153.6416 0001237  98.2880 261.8252 15.08842227100449,6917.874,95.437,540.594,538.883,0.0
53416.0,STARLINK-4480,PAYLOAD,2024-05-29 04:37:20,15.0883982,0.0001235,53.2153,149.7759,98.4596,261.6536,3.5497e-05,2.77e-06,0.0,0 STARLINK-4480,1 53416U 22097AE  24150.19260052  .00000277  00000-0  35497-4 0  9994,2 53416  53.2153 149.7759 0001235  98.4596 261.6536 15.08839820100110,6917.881,95.438,540.6,538.892,0.0
